start=new Date('2022-04-12T00:00:00.000Z').valueOf();
sats=[{"MEAN_MOTION":"15.06392093","OBJECT_ID":"2020-012Z","ARG_OF_PERICENTER":"66.6030","MEAN_ELEMENT_THEORY":"SGP4","PERIOD":"95.593","TLE_LINE2":"2 45201  53.0532 316.2932 0001580  66.6030 293.5125 15.06392093119919","APOAPSIS":"548.332","ECCENTRICITY":"0.00015800","EPOCH":"2022-04-11T21:11:01.080960","MEAN_MOTION_DOT":"0.00001112","CLASSIFICATION_TYPE":"U","LAUNCH_DATE":"2020-02-17","OBJECT_NAME":"STARLINK-1199","RCS_SIZE":"LARGE","REV_AT_EPOCH":"11991","COUNTRY_CODE":"US","INCLINATION":"53.0532","MEAN_ANOMALY":"293.5125","FILE":"3397723","DECAY_DATE":null,"PERIAPSIS":"546.144","SEMIMAJOR_AXIS":"6925.373","SITE":"AFETR","REF_FRAME":"TEME","TLE_LINE1":"1 45201U 20012Z   22101.88265140  .00001112  00000-0  93557-4 0  9995","GP_ID":"201014352","CENTER_NAME":"EARTH","RA_OF_ASC_NODE":"316.2932","MEAN_MOTION_DDOT":"0.0000000000000","NORAD_CAT_ID":"45201","TIME_SYSTEM":"UTC","ELEMENT_SET_NO":"999","OBJECT_TYPE":"PAYLOAD","EPHEMERIS_TYPE":"0","BSTAR":"0.00009355700000"},{"RA_OF_ASC_NODE":"325.8095","OBJECT_TYPE":"PAYLOAD","EPHEMERIS_TYPE":"0","BSTAR":"0.00102510000000","NORAD_CAT_ID":"45202","MEAN_MOTION_DDOT":"0.0000000000000","TIME_SYSTEM":"UTC","ELEMENT_SET_NO":"999","PERIAPSIS":"528.027","SEMIMAJOR_AXIS":"6907.212","COUNTRY_CODE":"US","MEAN_ANOMALY":"239.5088","INCLINATION":"52.9818","FILE":"3397723","DECAY_DATE":null,"CENTER_NAME":"EARTH","GP_ID":"201014602","SITE":"AFETR","REF_FRAME":"TEME","TLE_LINE1":"1 45202U 20012AA  22101.89008459  .00017719  00000-0  10251-2 0  9993","MEAN_MOTION_DOT":"0.00017719","CLASSIFICATION_TYPE":"U","OBJECT_NAME":"STARLINK-1203","RCS_SIZE":"LARGE","REV_AT_EPOCH":"11976","LAUNCH_DATE":"2020-02-17","TLE_LINE2":"2 45202  52.9818 325.8095 0001521 120.6053 239.5088 15.12336965119766","APOAPSIS":"530.128","ECCENTRICITY":"0.00015210","MEAN_MOTION":"15.12336965","OBJECT_ID":"2020-012AA","ARG_OF_PERICENTER":"120.6053","PERIOD":"95.217","MEAN_ELEMENT_THEORY":"SGP4","EPOCH":"2022-04-11T21:21:43.308576"},{"LAUNCH_DATE":"2020-02-17","RCS_SIZE":"LARGE","OBJECT_NAME":"STARLINK-1206","REV_AT_EPOCH":"11992","CLASSIFICATION_TYPE":"U","MEAN_MOTION_DOT":"0.00000842","EPOCH":"2022-04-11T20:12:37.191168","MEAN_MOTION":"15.06401284","MEAN_ELEMENT_THEORY":"SGP4","PERIOD":"95.592","ARG_OF_PERICENTER":"56.1713","OBJECT_ID":"2020-012AC","TLE_LINE2":"2 45204  53.0542 316.4805 0001769  56.1713 303.9444 15.06401284119929","ECCENTRICITY":"0.00017690","APOAPSIS":"548.435","ELEMENT_SET_NO":"999","TIME_SYSTEM":"UTC","MEAN_MOTION_DDOT":"0.0000000000000","NORAD_CAT_ID":"45204","EPHEMERIS_TYPE":"0","OBJECT_TYPE":"PAYLOAD","BSTAR":"0.00007544000000","RA_OF_ASC_NODE":"316.4805","REF_FRAME":"TEME","SITE":"AFETR","TLE_LINE1":"1 45204U 20012AC  22101.84209712  .00000842  00000-0  75440-4 0  9997","CENTER_NAME":"EARTH","GP_ID":"201015354","INCLINATION":"53.0542","MEAN_ANOMALY":"303.9444","COUNTRY_CODE":"US","DECAY_DATE":null,"FILE":"3397723","SEMIMAJOR_AXIS":"6925.345","PERIAPSIS":"545.985"},{"MEAN_MOTION":"15.06392054","PERIOD":"95.593","MEAN_ELEMENT_THEORY":"SGP4","OBJECT_ID":"2020-012AD","ARG_OF_PERICENTER":"75.2526","TLE_LINE2":"2 45205  53.0568 316.3607 0001952  75.2526 284.8679 15.06392054119937","ECCENTRICITY":"0.00019520","APOAPSIS":"548.590","EPOCH":"2022-04-11T20:44:28.464576","CLASSIFICATION_TYPE":"U","MEAN_MOTION_DOT":"0.00001083","LAUNCH_DATE":"2020-02-17","RCS_SIZE":"LARGE","OBJECT_NAME":"STARLINK-1208","REV_AT_EPOCH":"11993","INCLINATION":"53.0568","MEAN_ANOMALY":"284.8679","COUNTRY_CODE":"US","DECAY_DATE":null,"FILE":"3397723","SEMIMAJOR_AXIS":"6925.373","PERIAPSIS":"545.886","REF_FRAME":"TEME","SITE":"AFETR","TLE_LINE1":"1 45205U 20012AD  22101.86421834  .00001083  00000-0  91625-4 0  9992","CENTER_NAME":"EARTH","GP_ID":"201015105","RA_OF_ASC_NODE":"316.3607","TIME_SYSTEM":"UTC","ELEMENT_SET_NO":"999","NORAD_CAT_ID":"45205","MEAN_MOTION_DDOT":"0.0000000000000","EPHEMERIS_TYPE":"0","OBJECT_TYPE":"PAYLOAD","BSTAR":"0.00009162500000"},{"LAUNCH_DATE":"2020-02-17","RCS_SIZE":"LARGE","OBJECT_NAME":"STARLINK-1209","REV_AT_EPOCH":"11923","CLASSIFICATION_TYPE":"U","MEAN_MOTION_DOT":"0.00000460","EPOCH":"2022-04-11T19:48:44.515008","MEAN_MOTION":"15.06390985","PERIOD":"95.593","MEAN_ELEMENT_THEORY":"SGP4","OBJECT_ID":"2020-012AE","ARG_OF_PERICENTER":"63.1522","TLE_LINE2":"2 45206  53.0529 296.5509 0001744  63.1522 296.9645 15.06390985119237","ECCENTRICITY":"0.00017440","APOAPSIS":"548.449","TIME_SYSTEM":"UTC","ELEMENT_SET_NO":"999","MEAN_MOTION_DDOT":"0.0000000000000","NORAD_CAT_ID":"45206","EPHEMERIS_TYPE":"0","OBJECT_TYPE":"PAYLOAD","BSTAR":"0.00004981400000","RA_OF_ASC_NODE":"296.5509","REF_FRAME":"TEME","SITE":"AFETR","TLE_LINE1":"1 45206U 20012AE  22101.82551522  .00000460  00000-0  49814-4 0  9998","GP_ID":"201013853","CENTER_NAME":"EARTH","MEAN_ANOMALY":"296.9645","INCLINATION":"53.0529","COUNTRY_CODE":"US","DECAY_DATE":null,"FILE":"3397723","PERIAPSIS":"546.033","SEMIMAJOR_AXIS":"6925.376"},{"RA_OF_ASC_NODE":"316.5661","BSTAR":"0.00126390000000","OBJECT_TYPE":"PAYLOAD","EPHEMERIS_TYPE":"0","MEAN_MOTION_DDOT":"0.0000000000000","NORAD_CAT_ID":"45207","TIME_SYSTEM":"UTC","ELEMENT_SET_NO":"999","SEMIMAJOR_AXIS":"6925.621","PERIAPSIS":"546.805","FILE":"3397723","DECAY_DATE":null,"COUNTRY_CODE":"US","INCLINATION":"53.0549","MEAN_ANOMALY":"282.8496","GP_ID":"201014103","CENTER_NAME":"EARTH","TLE_LINE1":"1 45207U 20012AF  22101.82001872  .00018549  00000-0  12639-2 0  9997","SITE":"AFETR","REF_FRAME":"TEME","MEAN_MOTION_DOT":"0.00018549","CLASSIFICATION_TYPE":"U","REV_AT_EPOCH":"11990","OBJECT_NAME":"STARLINK-1210","RCS_SIZE":"LARGE","LAUNCH_DATE":"2020-02-17","APOAPSIS":"548.166","ECCENTRICITY":"0.00009830","TLE_LINE2":"2 45207  53.0549 316.5661 0000983  77.2603 282.8496 15.06311247119908","ARG_OF_PERICENTER":"77.2603","OBJECT_ID":"2020-012AF","MEAN_ELEMENT_THEORY":"SGP4","PERIOD":"95.598","MEAN_MOTION":"15.06311247","EPOCH":"2022-04-11T19:40:49.617408"},{"CLASSIFICATION_TYPE":"U","MEAN_MOTION_DOT":"0.00002000","LAUNCH_DATE":"2020-02-17","REV_AT_EPOCH":"11981","RCS_SIZE":"LARGE","OBJECT_NAME":"STARLINK-1211","MEAN_ELEMENT_THEORY":"SGP4","PERIOD":"95.644","OBJECT_ID":"2020-012AG","ARG_OF_PERICENTER":"57.5817","MEAN_MOTION":"15.05579570","ECCENTRICITY":"0.00016490","APOAPSIS":"550.872","TLE_LINE2":"2 45208  53.0025 316.3182 0001649  57.5817 302.5330 15.05579570119813","EPOCH":"2022-04-11T21:01:29.784288","RA_OF_ASC_NODE":"316.3182","TIME_SYSTEM":"UTC","ELEMENT_SET_NO":"999","MEAN_MOTION_DDOT":"0.0000000000000","NORAD_CAT_ID":"45208","BSTAR":"0.00015641000000","EPHEMERIS_TYPE":"0","OBJECT_TYPE":"PAYLOAD","DECAY_DATE":null,"FILE":"3397723","INCLINATION":"53.0025","MEAN_ANOMALY":"302.5330","COUNTRY_CODE":"US","PERIAPSIS":"548.587","SEMIMAJOR_AXIS":"6927.864","TLE_LINE1":"1 45208U 20012AG  22101.87603917  .00002000  00000-0  15641-3 0  9993","REF_FRAME":"TEME","SITE":"AFETR","GP_ID":"201014855","CENTER_NAME":"EARTH"},{"EPOCH":"2022-04-11T12:19:14.690208","MEAN_MOTION":"15.76702390","PERIOD":"91.330","MEAN_ELEMENT_THEORY":"SGP4","ARG_OF_PERICENTER":"280.0370","OBJECT_ID":"2020-012AH","TLE_LINE2":"2 45209  53.0469 178.5515 0008305 280.0370  79.9712 15.76702390120869","ECCENTRICITY":"0.00083050","APOAPSIS":"345.372","LAUNCH_DATE":"2020-02-17","RCS_SIZE":"LARGE","OBJECT_NAME":"STARLINK-1218","REV_AT_EPOCH":"12086","CLASSIFICATION_TYPE":"U","MEAN_MOTION_DOT":"0.00001750","REF_FRAME":"TEME","SITE":"AFETR","TLE_LINE1":"1 45209U 20012AH  22101.51336447  .00001750  00000-0  14758-4 0  9996","GP_ID":"200958743","CENTER_NAME":"EARTH","INCLINATION":"53.0469","MEAN_ANOMALY":"79.9712","COUNTRY_CODE":"US","DECAY_DATE":null,"FILE":"3397165","SEMIMAJOR_AXIS":"6717.928","PERIAPSIS":"334.214","ELEMENT_SET_NO":"999","TIME_SYSTEM":"UTC","NORAD_CAT_ID":"45209","MEAN_MOTION_DDOT":"0.0000000000000","EPHEMERIS_TYPE":"0","OBJECT_TYPE":"PAYLOAD","BSTAR":"0.00001475800000","RA_OF_ASC_NODE":"178.5515"},{"MEAN_MOTION":"15.06393267","ARG_OF_PERICENTER":"61.7244","OBJECT_ID":"2020-012AJ","MEAN_ELEMENT_THEORY":"SGP4","PERIOD":"95.593","TLE_LINE2":"2 45210  53.0552 316.5707 0001539  61.7244 298.3900 15.06393267119795","APOAPSIS":"548.300","ECCENTRICITY":"0.00015390","EPOCH":"2022-04-11T19:46:05.351520","MEAN_MOTION_DOT":"0.00003412","CLASSIFICATION_TYPE":"U","LAUNCH_DATE":"2020-02-17","OBJECT_NAME":"STARLINK-1219","RCS_SIZE":"LARGE","REV_AT_EPOCH":"11979","COUNTRY_CODE":"US","MEAN_ANOMALY":"298.3900","INCLINATION":"53.0552","FILE":"3397723","DECAY_DATE":null,"SEMIMAJOR_AXIS":"6925.369","PERIAPSIS":"546.168","SITE":"AFETR","REF_FRAME":"TEME","TLE_LINE1":"1 45210U 20012AJ  22101.82367305  .00003412  00000-0  24788-3 0  9999","GP_ID":"201014353","CENTER_NAME":"EARTH","RA_OF_ASC_NODE":"316.5707","MEAN_MOTION_DDOT":"0.0000000000000","NORAD_CAT_ID":"45210","ELEMENT_SET_NO":"999","TIME_SYSTEM":"UTC","OBJECT_TYPE":"PAYLOAD","EPHEMERIS_TYPE":"0","BSTAR":"0.00024788000000"},{"TLE_LINE1":"1 45212U 20012AL  22101.85684664  .00001576  00000-0  12471-3 0  9999","REF_FRAME":"TEME","SITE":"AFETR","GP_ID":"201014603","CENTER_NAME":"EARTH","DECAY_DATE":null,"FILE":"3397723","INCLINATION":"53.0560","MEAN_ANOMALY":"300.5534","COUNTRY_CODE":"US","PERIAPSIS":"546.170","SEMIMAJOR_AXIS":"6925.371","TIME_SYSTEM":"UTC","ELEMENT_SET_NO":"999","MEAN_MOTION_DDOT":"0.0000000000000","NORAD_CAT_ID":"45212","BSTAR":"0.00012471000000","EPHEMERIS_TYPE":"0","OBJECT_TYPE":"PAYLOAD","RA_OF_ASC_NODE":"316.4075","EPOCH":"2022-04-11T20:33:51.549696","PERIOD":"95.593","MEAN_ELEMENT_THEORY":"SGP4","ARG_OF_PERICENTER":"59.5607","OBJECT_ID":"2020-012AL","MEAN_MOTION":"15.06392553","ECCENTRICITY":"0.00015400","APOAPSIS":"548.303","TLE_LINE2":"2 45212  53.0560 316.4075 0001540  59.5607 300.5534 15.06392553119867","LAUNCH_DATE":"2020-02-17","REV_AT_EPOCH":"11986","RCS_SIZE":"LARGE","OBJECT_NAME":"STARLINK-1231","CLASSIFICATION_TYPE":"U","MEAN_MOTION_DOT":"0.00001576"}];
